NORAD_CAT_ID,OBJECT_NAME,OBJECT_TYPE,EPOCH,MEAN_MOTION,ECCENTRICITY,INCLINATION,RA_OF_ASC_NODE,ARG_OF_PERICENTER,MEAN_ANOMALY,BSTAR,MEAN_MOTION_DOT,MEAN_MOTION_DDOT,TLE_LINE0,TLE_LINE1,TLE_LINE2,SEMIMAJOR_AXIS,PERIOD,APOGEE,PERIGEE,DECAYED
52486.0,STARLINK-3918,PAYLOAD,2023-04-14 09:05:08,15.08842595,0.000134,53.2155,139.0409,87.1343,272.9802,0.00010081,1.317e-05,0.0,0 STARLINK-3918,1 52486U 22049AM  23104.37857368  .00001317  00000-0  10081-3 0  9994,2 52486  53.2155 139.0409 0001340  87.1343 272.9802 15.08842595 52181,6917.872,95.437,540.664,538.81,0.0
52486.0,STARLINK-3918,PAYLOAD,2023-04-15 07:20:33,15.08838248,0.0001454,53.2156,134.8769,92.4843,267.6315,8.9509e-05,1.137e-05,0.0,0 STARLINK-3918,1 52486U 22049AM  23105.30594003  .00001137  00000-0  89509-4 0  9994,2 52486  53.2156 134.8769 0001454  92.4843 267.6315 15.08838248 52487,6917.886,95.438,540.757,538.745,0.0
52486.0,STARLINK-3918,PAYLOAD,2023-04-15 18:28:15,15.08828698,0.0001613,53.2147,132.7956,94.4021,265.7156,-0.00013932,-2.504e-05,0.0,0 STARLINK-3918,1 52486U 22049AM  23105.76962260 -.00002504  00000-0 -13932-3 0  9995,2 52486  53.2147 132.7956 0001613  94.4021 265.7156 15.08828698 52399,6917.915,95.438,540.896,538.664,0.0
52486.0,STARLINK-3918,PAYLOAD,2023-04-16 11:57:29,15.08842448,0.0001402,53.2145,129.5237,96.6087,263.5064,1.7862e-05,-4e-08,0.0,0 STARLINK-3918,1 52486U 22049AM  23106.49825734 -.00000004  00000-0  17862-4 0  9999,2 52486  53.2145 129.5237 0001402  96.6087 263.5064 15.08842448 52668,6917.873,95.437,540.708,538.768,0.0
52486.0,STARLINK-3918,PAYLOAD,2023-04-16 18:19:02,15.08835749,0.0001427,53.2152,128.3342,92.8234,267.2922,1.8528e-05,7e-08,0.0,0 STARLINK-3918,1 52486U 22049AM  23106.76322093  .00000007  00000-0  18528-4 0  9991,2 52486  53.2152 128.3342 0001427  92.8234 267.2922 15.08835749 52546,6917.893,95.438,540.746,538.771,0.0
52486.0,STARLINK-3918,PAYLOAD,2023-04-17 05:26:44,15.08836449,0.0001428,53.2146,126.2537,99.1165,260.9989,0.00010017,1.306e-05,0.0,0 STARLINK-3918,1 52486U 22049AM  23107.22690386  .00001306  00000-0  10017-3 0  9993,2 52486  53.2146 126.2537 0001428  99.1165 260.9989 15.08836449 52772,6917.891,95.438,540.744,538.768,0.0
52486.0,STARLINK-3918,PAYLOAD,2023-04-17 08:37:30,15.08838679,0.0001401,53.2148,125.659,98.3526,261.7625,0.00015795,2.227e-05,0.0,0 STARLINK-3918,1 52486U 22049AM  23107.35938386  .00002227  00000-0  15795-3 0  9993,2 52486  53.2148 125.6590 0001401  98.3526 261.7625 15.08838679 52637,6917.884,95.438,540.719,538.78,0.0
52486.0,STARLINK-3918,PAYLOAD,2023-04-17 18:09:49,15.08839041,0.0001467,53.2148,123.8751,93.2246,266.8914,0.00020989,3.054e-05,0.0,0 STARLINK-3918,1 52486U 22049AM  23107.75682522  .00003054  00000-0  20989-3 0  9995,2 52486  53.2148 123.8751 0001467  93.2246 266.8914 15.08839041 52698,6917.883,95.438,540.763,538.733,0.0
52486.0,STARLINK-3918,PAYLOAD,2023-04-18 10:03:40,15.08844996,0.00014,53.2146,120.9014,94.1437,265.9715,0.00022539,3.301e-05,0.0,0 STARLINK-3918,1 52486U 22049AM  23108.41922303  .00003301  00000-0  22539-3 0  9991,2 52486  53.2146 120.9014 0001400  94.1437 265.9715 15.08844996 52790,6917.865,95.437,540.699,538.762,0.0
52486.0,STARLINK-3918,PAYLOAD,2023-04-18 18:00:36,15.08836683,0.0001253,53.2136,119.4134,92.7198,267.3938,6.2255e-05,7.03e-06,0.0,0 STARLINK-3918,1 52486U 22049AM  23108.75042670  .00000703  00000-0  62255-4 0  9991,2 52486  53.2136 119.4134 0001253  92.7198 267.3938 15.08836683 53001,6917.891,95.438,540.622,538.889,0.0
52486.0,STARLINK-3918,PAYLOAD,2023-04-19 09:54:28,15.08837672,0.0001213,53.2144,116.4395,97.6197,262.4933,8.1012e-05,1.002e-05,0.0,0 STARLINK-3918,1 52486U 22049AM  23109.41282976  .00001002  00000-0  81012-4 0  9995,2 52486  53.2144 116.4395 0001213  97.6197 262.4933 15.08837672 52947,6917.888,95.438,540.592,538.913,0.0
52486.0,STARLINK-3918,PAYLOAD,2023-04-19 17:51:24,15.08841823,0.0001243,53.2135,114.9547,88.7222,271.3913,0.00011067,1.474e-05,0.0,0 STARLINK-3918,1 52486U 22049AM  23109.74402863  .00001474  00000-0  11067-3 0  9995,2 52486  53.2135 114.9547 0001243  88.7222 271.3913 15.08841823 52997,6917.875,95.437,540.6,538.88,0.0
52486.0,STARLINK-3918,PAYLOAD,2023-04-20 06:34:28,15.08849412,0.0001263,53.2137,112.5753,87.1484,272.9653,0.00023679,3.484e-05,0.0,0 STARLINK-3918,1 52486U 22049AM  23110.27394479  .00003484  00000-0  23679-3 0  9993,2 52486  53.2137 112.5753 0001263  87.1484 272.9653 15.08849412 53235,6917.852,95.437,540.59,538.843,0.0
52486.0,STARLINK-3918,PAYLOAD,2023-04-20 11:20:38,15.08852801,0.0001215,53.214,111.6827,89.7498,270.3634,0.00025415,3.761e-05,0.0,0 STARLINK-3918,1 52486U 22049AM  23110.47266246  .00003761  00000-0  25415-3 0  9993,2 52486  53.2140 111.6827 0001215  89.7498 270.3634 15.08852801 53104,6917.841,95.437,540.547,538.866,0.0
52486.0,STARLINK-3918,PAYLOAD,2023-04-20 17:42:11,15.08835026,0.0001628,53.2142,110.4953,63.3866,296.7292,2.4578e-05,1.03e-06,0.0,0 STARLINK-3918,1 52486U 22049AM  23110.73763144  .00000103  00000-0  24578-4 0  9998,2 52486  53.2142 110.4953 0001628  63.3866 296.7292 15.08835026 53144,6917.896,95.438,540.887,538.634,0.0
52486.0,STARLINK-3918,PAYLOAD,2023-04-21 11:11:25,15.08838067,0.0001278,53.2147,107.2222,80.2874,279.8262,7.2102e-05,8.6e-06,0.0,0 STARLINK-3918,1 52486U 22049AM  23111.46627252  .00000860  00000-0  72102-4 0  9994,2 52486  53.2147 107.2222 0001278  80.2874 279.8262 15.08838067 53259,6917.886,95.438,540.635,538.867,0.0
52486.0,STARLINK-3918,PAYLOAD,2023-04-22 11:02:12,15.0885813,0.0001285,53.2146,102.7618,81.3853,278.7285,0.00040691,6.197e-05,0.0,0 STARLINK-3918,1 52486U 22049AM  23112.45986309  .00006197  00000-0  40691-3 0  9991,2 52486  53.2146 102.7618 0001285  81.3853 278.7285 15.08858130 53407,6917.825,95.436,540.579,538.801,0.0
52486.0,STARLINK-3918,PAYLOAD,2023-04-22 15:48:22,15.08837199,7.94e-05,53.2142,101.8712,105.2897,254.8183,-2.9686e-05,-7.6e-06,0.0,0 STARLINK-3918,1 52486U 22049AM  23112.65858899 -.00000760  00000-0 -29686-4 0  9999,2 52486  53.2142 101.8712 0000794 105.2897 254.8183 15.08837199 53590,6917.889,95.438,540.303,539.205,0.0
52486.0,STARLINK-3918,PAYLOAD,2023-04-23 10:52:59,15.08850242,0.0001104,53.2152,98.3007,86.0491,274.0628,0.00023296,3.423e-05,0.0,0 STARLINK-3918,1 52486U 22049AM  23113.45346502  .00003423  00000-0  23296-3 0  9998,2 52486  53.2152  98.3007 0001104  86.0491 274.0628 15.08850242 53716,6917.849,95.437,540.478,538.95,0.0
52486.0,STARLINK-3918,PAYLOAD,2023-04-24 09:08:22,15.08872427,0.0001392,53.2162,94.1362,92.4237,267.6915,0.00086436,0.00013507,0.0,0 STARLINK-3918,1 52486U 22049AM  23114.38081881  .00013507  00000-0  86436-3 0  9996,2 52486  53.2162  94.1362 0001392  92.4237 267.6915 15.08872427 53696,6917.781,95.436,540.609,538.683,0.0
52486.0,STARLINK-3918,PAYLOAD,2023-04-24 15:29:55,15.08856054,0.0001439,53.2162,92.9477,82.9332,277.1824,0.00047138,7.225e-05,0.0,0 STARLINK-3918,1 52486U 22049AM  23114.64578155  .00007225  00000-0  47138-3 0  9996,2 52486  53.2162  92.9477 0001439  82.9332 277.1824 15.08856054 53896,6917.831,95.437,540.692,538.701,0.0
52486.0,STARLINK-3918,PAYLOAD,2023-04-25 04:13:01,15.08830186,0.0001778,53.2172,90.5694,79.7713,280.348,0.00014949,2.091e-05,0.0,0 STARLINK-3918,1 52486U 22049AM  23115.17571116  .00002091  00000-0  14949-3 0  9995,2 52486  53.2172  90.5694 0001778  79.7713 280.3480 15.08830186 53976,6917.91,95.438,541.005,538.545,0.0
52486.0,STARLINK-3918,PAYLOAD,2023-04-25 10:34:34,15.08818659,0.0001665,53.2174,89.3797,85.5125,274.6057,0.00029435,4.397e-05,0.0,0 STARLINK-3918,1 52486U 22049AM  23115.44067738  .00004397  00000-0  29435-3 0  9992,2 52486  53.2174  89.3797 0001665  85.5125 274.6057 15.08818659 54018,6917.946,95.439,540.962,538.659,0.0
52486.0,STARLINK-3918,PAYLOAD,2023-04-26 10:25:22,15.08825787,0.0001576,53.2173,84.9198,79.6175,280.4995,-6.4913e-05,-1.321e-05,0.0,0 STARLINK-3918,1 52486U 22049AM  23116.43428942 -.00001321  00000-0 -64913-4 0  9997,2 52486  53.2173  84.9198 0001576  79.6175 280.4995 15.08825787 54008,6917.924,95.438,540.879,538.699,0.0
52486.0,STARLINK-3918,PAYLOAD,2023-04-26 15:11:31,15.08830168,0.0001556,53.2173,84.0279,78.8711,281.2456,-2.3546e-05,-6.63e-06,0.0,0 STARLINK-3918,1 52486U 22049AM  23116.63300692 -.00000663  00000-0 -23546-4 0  9995,2 52486  53.2173  84.0279 0001556  78.8711 281.2456 15.08830168 54037,6917.91,95.438,540.852,538.699,0.0
52486.0,STARLINK-3918,PAYLOAD,2023-04-27 03:54:36,15.08836817,0.000134,53.2168,81.6489,75.6476,284.4665,7.6035e-05,9.22e-06,0.0,0 STARLINK-3918,1 52486U 22049AM  23117.16292234  .00000922  00000-0  76035-4 0  9993,2 52486  53.2168  81.6489 0001340  75.6476 284.4665 15.08836817 54271,6917.89,95.438,540.682,538.828,0.0
52486.0,STARLINK-3918,PAYLOAD,2023-04-27 07:05:22,15.08839917,0.0001328,53.2167,81.0536,78.7672,281.3469,0.00010899,1.447e-05,0.0,0 STARLINK-3918,1 52486U 22049AM  23117.29539987  .00001447  00000-0  10899-3 0  9994,2 52486  53.2167  81.0536 0001328  78.7672 281.3469 15.08839917 54132,6917.881,95.438,540.664,538.827,0.0
52486.0,STARLINK-3918,PAYLOAD,2023-04-28 03:45:22,15.08852025,0.0001293,53.2169,77.1873,80.6625,279.4514,0.00030948,4.642e-05,0.0,0 STARLINK-3918,1 52486U 22049AM  23118.15650941  .00004642  00000-0  30948-3 0  9991,2 52486  53.2169  77.1873 0001293  80.6625 279.4514 15.08852025 54421,6917.844,95.437,540.603,538.814,0.0
52486.0,STARLINK-3918,PAYLOAD,2023-04-29 03:36:10,15.08848966,0.0001286,53.218,72.7304,83.339,276.7749,2.0703e-05,4.2e-07,0.0,0 STARLINK-3918,1 52486U 22049AM  23119.15011713  .00000042  00000-0  20703-4 0  9999,2 52486  53.2180  72.7304 0001286  83.3390 276.7749 15.08848966 54570,6917.853,95.437,540.608,538.828,0.0
52486.0,STARLINK-3918,PAYLOAD,2023-04-29 06:46:56,15.08849259,0.000125,53.2171,72.1335,90.0936,270.02,2.933e-05,1.79e-06,0.0,0 STARLINK-3918,1 52486U 22049AM  23119.28259555  .00000179  00000-0  29330-4 0  9997,2 52486  53.2171  72.1335 0001250  90.0936 270.0200 15.08849259 54430,6917.852,95.437,540.582,538.852,0.0
